STARLINK-36075          
1 66905U 25283AD  25363.83335647 -.01824650  00000+0 -36598-1 0  9993
2 66905  53.1589 349.3104 0001634 100.8043 104.6200 15.49651028  5170
1998-067XS              
1 66906U 98067XS  25363.48136637  .00038202  00000+0  63864-3 0  9998
2 66906  51.6326  59.3347 0002617 291.4544  68.6166 15.51524554  4215
1998-067XT              
1 66907U 98067XT  25363.46279640  .00093030  00000+0  14194-2 0  9990
2 66907  51.6312  59.2117 0003831 329.8125  30.2644 15.53668810  4217
1998-067XU              
1 66908U 98067XU  25363.46161730  .00081056  00000+0  12402-2 0  9996
2 66908  51.6310  59.2030 0003915 326.0773  33.9966 15.53652804  4214
SILVERSAT               
1 66909U 98067XV  25363.52341789  .00105899  00000+0  15885-2 0  9998
2 66909  51.6308  58.8658 0003909 333.7603  26.3189 15.54074653  4228
1998-067XW              
1 66910U 98067XW  25363.45777360  .00094181  00000+0  14242-2 0  9997
2 66910  51.6309  59.1775 0003543 303.1215  56.9435 15.53909102  4216
1998-067XX              
1 66911U 98067XX  25363.45230814  .00116506  00000+0  17130-2 0  9991
2 66911  51.6308  59.1419 0003280 314.1979  45.8742 15.54577281  4205
1998-067XY              
1 66912U 98067XY  25363.46952149  .00072380  00000+0  11410-2 0  9991
2 66912  51.6325  59.2573 0003860 318.8171  41.2527 15.52878561  4200
2025-284A               
1 66913U 25284A   25357.10748193  .00008748  00000+0  55264-3 0  9992
2 66913  80.4035 116.7336 0013475 259.6514 100.3189 15.08893564  2694
2025-284B               
1 66914U 25284B   25350.28554881  .00008068  00000+0  38445-3 0  9991
2 66914  80.4045 125.2713 0008179 234.9626 125.0834 15.18985981  1668
HULIANWANG DIGUI-105    
1 66915U 25285A   25364.07986389  .00000092  00000+0  16264-3 0  9991
2 66915  50.0122  46.7257 0002283 319.8322  40.2412 14.00240170  3345
HULIANWANG DIGUI-106    
1 66916U 25285B   25361.43773301  .00000055  00000+0  13439-3 0  9997
2 66916  50.0052  57.4085 0004948 327.7035  32.3565 14.01851189  2973
